{"type": "FeatureCollection", "features": [ {"type": "Feature", "properties": {"norad_id": 33841, "name": "COSMOS 2251 DEB", "group": "cosmos-2251-debris", "lat": 60.783670752204536, "lon": -41.184044021622924, "alt_km": 751.1687316073758, "timestamp": "2025-12-07T07:31:36.690740+00:00", "meta": {"OBJECT_NAME": "COSMOS 2251 DEB", "OBJECT_ID": "1993-036CJ", "EPOCH": "2025-12-06T21:29:43.201824", "MEAN_MOTION": 14.37846381, "ECCENTRICITY": 0.00202725, "INCLINATION": 74.0374, "RA_OF_ASC_NODE": 288.8017, "ARG_OF_PERICENTER": 10.4617, "MEAN_ANOMALY": 51.9, "EPHEMERIS_TYPE": 0, "CLASSIFICATION_TYPE": "U", "NORAD_CAT_ID": 33841, "ELEMENT_SET_NO": 999, "REV_AT_EPOCH": 88030, "BSTAR": 0.00044430236, "MEAN_MOTION_DOT": 1.317e-05, "MEAN_MOTION_DDOT": 0}, "tle": {"line1": "1 33841U 93036CJ  25340.89563891  .00001317  00000+0  44430-3 0  9992", "line2": "2 33841  74.0374 288.8017 0020272  10.4617  51.9000 14.37846381880301"}}, "geometry": {"type": "Point", "coordinates": [-41.184044021622924, 60.783670752204536]}}, {"type": "Feature", "properties": {"norad_id": 33842, "name": "COSMOS 2251 DEB", "group": "cosmos-2251-debris", "lat": -42.84300259093083, "lon": 65.12072278774934, "alt_km": 769.027977564835, "timestamp": "2025-12-07T07:31:36.690750+00:00", "meta": {"OBJECT_NAME": "COSMOS 2251 DEB", "OBJECT_ID": "1993-036CK", "EPOCH": "2025-12-06T20:29:56.096736", "MEAN_MOTION": 14.42679037, "ECCENTRICITY": 0.00471111, "INCLINATION": 74.0336, "RA_OF_ASC_NODE": 230.5758, "ARG_OF_PERICENTER": 339.0859, "MEAN_ANOMALY": 20.8368, "EPHEMERIS_TYPE": 0, "CLASSIFICATION_TYPE": "U", "NORAD_CAT_ID": 33842, "ELEMENT_SET_NO": 999, "REV_AT_EPOCH": 88252, "BSTAR": 0.00059887653, "MEAN_MOTION_DOT": 1.992e-05, "MEAN_MOTION_DDOT": 0}, "tle": {"line1": "1 33842U 93036CK  25340.85412149  .00001992  00000+0  59888-3 0  9990", "line2": "2 33842  74.0336 230.5758 0047111 339.0859  20.8368 14.42679037882521"}}, "geometry": {"type": "Point", "coordinates": [65.12072278774934, -42.84300259093083]}}, {"type": "Feature", "properties": {"norad_id": 33844, "name": "COSMOS 2251 DEB", "group": "cosmos-2251-debris", "lat": -28.058731089187695, "lon": 53.92689027239144, "alt_km": 799.2750174132807, "timestamp": "2025-12-07T07:31:36.690760+00:00", "meta": {"OBJECT_NAME": "COSMOS 2251 DEB", "OBJECT_ID": "1993-036CM", "EPOCH": "2025-12-06T17:10:08.170176", "MEAN_MOTION": 14.33696476, "ECCENTRICITY": 0.00470999, "INCLINATION": 74.0674, "RA_OF_ASC_NODE": 63.7766, "ARG_OF_PERICENTER": 87.6449, "MEAN_ANOMALY": 37.1644, "EPHEMERIS_TYPE": 0, "CLASSIFICATION_TYPE": "U", "NORAD_CAT_ID": 33844, "ELEMENT_SET_NO": 999, "REV_AT_EPOCH": 87639, "BSTAR": 0.00072807869, "MEAN_MOTION_DOT": 2.021e-05, "MEAN_MOTION_DDOT": 0}, "tle": {"line1": "1 33844U 93036CM  25340.71537234  .00002021  00000+0  72808-3 0  9991", "line2": "2 33844  74.0674  63.7766 0047099  87.6449  37.1644 14.33696476876391"}}, "geometry": {"type": "Point", "coordinates": [53.92689027239144, -28.058731089187695]}}, {"type": "Feature", "properties": {"norad_id": 33848, "name": "COSMOS 2251 DEB", "group": "cosmos-2251-debris", "lat": -48.763595568531585, "lon": -11.326410016166408, "alt_km": 764.8584145112227, "timestamp": "2025-12-07T07:31:36.690770+00:00", "meta": {"OBJECT_NAME": "COSMOS 2251 DEB", "OBJECT_ID": "1993-036CR", "EPOCH": "2025-12-06T12:30:06.255072", "MEAN_MOTION": 14.44001066, "ECCENTRICITY": 0.0040924, "INCLINATION": 74.0318, "RA_OF_ASC_NODE": 9.2135, "ARG_OF_PERICENTER": 67.1416, "MEAN_ANOMALY": 82.7024, "EPHEMERIS_TYPE": 0, "CLASSIFICATION_TYPE": "U", "NORAD_CAT_ID": 33848, "ELEMENT_SET_NO": 999, "REV_AT_EPOCH": 87741, "BSTAR": 0.0017314851, "MEAN_MOTION_DOT": 5.958e-05, "MEAN_MOTION_DDOT": 0}, "tle": {"line1": "1 33848U 93036CR  25340.52090573  .00005958  00000+0  17315-2 0  9997", "line2": "2 33848  74.0318   9.2135 0040924  67.1416  82.7024 14.44001066877411"}}, "geometry": {"type": "Point", "coordinates": [-11.326410016166408, -48.763595568531585]}}, {"type": "Feature", "properties": {"norad_id": 33892, "name": "COSMOS 2251 DEB", "group": "cosmos-2251-debris", "lat": -71.85080397720778, "lon": 49.493888234561716, "alt_km": 877.3967380861641, "timestamp": "2025-12-07T07:31:36.690780+00:00", "meta": {"OBJECT_NAME": "COSMOS 2251 DEB", "OBJECT_ID": "1993-036CV", "EPOCH": "2025-12-05T10:38:25.461600", "MEAN_MOTION": 14.23289044, "ECCENTRICITY": 0.01134683, "INCLINATION": 73.8025, "RA_OF_ASC_NODE": 115.3673, "ARG_OF_PERICENTER": 147.9795, "MEAN_ANOMALY": 270.1039, "EPHEMERIS_TYPE": 0, "CLASSIFICATION_TYPE": "U", "NORAD_CAT_ID": 33892, "ELEMENT_SET_NO": 999, "REV_AT_EPOCH": 86851, "BSTAR": 0.001921511, "MEAN_MOTION_DOT": 4.626e-05, "MEAN_MOTION_DDOT": 0}, "tle": {"line1": "1 33892U 93036CV  25339.44335025  .00004626  00000+0  19215-2 0  9991", "line2": "2 33892  73.8025 115.3673 0113468 147.9795 270.1039 14.23289044868510"}}, "geometry": {"type": "Point", "coordinates": [49.493888234561716, -71.85080397720778]}}, {"type": "Feature", "properties": {"norad_id": 33894, "name": "COSMOS 2251 DEB", "group": "cosmos-2251-debris", "lat": 25.091650393067248, "lon": 5.317647601665233, "alt_km": 1296.0427969949533, "timestamp": "2025-12-07T07:31:36.690791+00:00", "meta": {"OBJECT_NAME": "COSMOS 2251 DEB", "OBJECT_ID": "1993-036CX", "EPOCH": "2025-12-06T18:40:27.809760", "MEAN_MOTION": 13.21275371, "ECCENTRICITY": 0.05795546, "INCLINATION": 73.7665, "RA_OF_ASC_NODE": 358.3052, "ARG_OF_PERICENTER": 278.4832, "MEAN_ANOMALY": 75.1013, "EPHEMERIS_TYPE": 0, "CLASSIFICATION_TYPE": "U", "NORAD_CAT_ID": 33894, "ELEMENT_SET_NO": 999, "REV_AT_EPOCH": 80629, "BSTAR": 0.0028206325, "MEAN_MOTION_DOT": 2.787e-05, "MEAN_MOTION_DDOT": 0}, "tle": {"line1": "1 33894U 93036CX  25340.77809965  .00002787  00000+0  28206-2 0  9996", "line2": "2 33894  73.7665 358.3052 0579554 278.4832  75.1013 13.21275371806292"}}, "geometry": {"type": "Point", "coordinates": [5.317647601665233, 25.091650393067248]}}, {"type": "Feature", "properties": {"norad_id": 33896, "name": "COSMOS 2251 DEB", "group": "cosmos-2251-debris", "lat": 65.66794358511173, "lon": -153.3513974747376, "alt_km": 818.5069054746973, "timestamp": "2025-12-07T07:31:36.690801+00:00", "meta": {"OBJECT_NAME": "COSMOS 2251 DEB", "OBJECT_ID": "1993-036CZ", "EPOCH": "2025-12-06T21:37:21.883872", "MEAN_MOTION": 14.19016603, "ECCENTRICITY": 0.0126226, "INCLINATION": 73.766, "RA_OF_ASC_NODE": 167.2828, "ARG_OF_PERICENTER": 343.8986, "MEAN_ANOMALY": 139.0232, "EPHEMERIS_TYPE": 0, "CLASSIFICATION_TYPE": "U", "NORAD_CAT_ID": 33896, "ELEMENT_SET_NO": 999, "REV_AT_EPOCH": 86657, "BSTAR": 0.00081217221, "MEAN_MOTION_DOT": 1.808e-05, "MEAN_MOTION_DDOT": 0}, "tle": {"line1": "1 33896U 93036CZ  25340.90094773  .00001808  00000+0  81217-3 0  9991", "line2": "2 33896  73.7660 167.2828 0126226 343.8986 139.0232 14.19016603866577"}}, "geometry": {"type": "Point", "coordinates": [-153.3513974747376, 65.66794358511173]}}, {"type": "Feature", "properties": {"norad_id": 33899, "name": "COSMOS 2251 DEB", "group": "cosmos-2251-debris", "lat": -11.623134036201302, "lon": 92.71739276083167, "alt_km": 733.8037343437027, "timestamp": "2025-12-07T07:31:36.690811+00:00", "meta": {"OBJECT_NAME": "COSMOS 2251 DEB", "OBJECT_ID": "1993-036DC", "EPOCH": "2025-12-06T19:00:09.856800", "MEAN_MOTION": 14.61093827, "ECCENTRICITY": 0.00573531, "INCLINATION": 74.0542, "RA_OF_ASC_NODE": 97.0849, "ARG_OF_PERICENTER": 161.45, "MEAN_ANOMALY": 322.9432, "EPHEMERIS_TYPE": 0, "CLASSIFICATION_TYPE": "U", "NORAD_CAT_ID": 33899, "ELEMENT_SET_NO": 999, "REV_AT_EPOCH": 88752, "BSTAR": 0.0019534634, "MEAN_MOTION_DOT": 9.812e-05, "MEAN_MOTION_DDOT": 0}, "tle": {"line1": "1 33899U 93036DC  25340.79178075  .00009812  00000+0  19535-2 0  9995", "line2": "2 33899  74.0542  97.0849 0057353 161.4500 322.9432 14.61093827887529"}}, "geometry": {"type": "Point", "coordinates": [92.71739276083167, -11.623134036201302]}}, {"type": "Feature", "properties": {"norad_id": 33900, "name": "COSMOS 2251 DEB", "group": "cosmos-2251-debris", "lat": 70.00752828195182, "lon": 62.169875706431846, "alt_km": 688.978324938972, "timestamp": "2025-12-07T07:31:36.690821+00:00", "meta": {"OBJECT_NAME": "COSMOS 2251 DEB", "OBJECT_ID": "1993-036DD", "EPOCH": "2025-12-06T13:46:29.388000", "MEAN_MOTION": 14.58313942, "ECCENTRICITY": 0.00471728, "INCLINATION": 74.0194, "RA_OF_ASC_NODE": 11.6109, "ARG_OF_PERICENTER": 165.442, "MEAN_ANOMALY": 351.34, "EPHEMERIS_TYPE": 0, "CLASSIFICATION_TYPE": "U", "NORAD_CAT_ID": 33900, "ELEMENT_SET_NO": 999, "REV_AT_EPOCH": 88946, "BSTAR": 0.00072199449, "MEAN_MOTION_DOT": 3.363e-05, "MEAN_MOTION_DDOT": 0}, "tle": {"line1": "1 33900U 93036DD  25340.57395125  .00003363  00000+0  72199-3 0  9992", "line2": "2 33900  74.0194  11.6109 0047172 165.4420 351.3400 14.58313942889464"}}, "geometry": {"type": "Point", "coordinates": [62.169875706431846, 70.00752828195182]}}, {"type": "Feature", "properties": {"norad_id": 33901, "name": "COSMOS 2251 DEB", "group": "cosmos-2251-debris", "lat": 22.74921211804319, "lon": 67.78835579712928, "alt_km": 543.2044177432672, "timestamp": "2025-12-07T07:31:36.690831+00:00", "meta": {"OBJECT_NAME": "COSMOS 2251 DEB", "OBJECT_ID": "1993-036DE", "EPOCH": "2025-12-06T21:54:44.364672", "MEAN_MOTION": 15.14910209, "ECCENTRICITY": 0.0033753, "INCLINATION": 73.7726, "RA_OF_ASC_NODE": 61.6198, "ARG_OF_PERICENTER": 193.9066, "MEAN_ANOMALY": 166.1202, "EPHEMERIS_TYPE": 0, "CLASSIFICATION_TYPE": "U", "NORAD_CAT_ID": 33901, "ELEMENT_SET_NO": 999, "REV_AT_EPOCH": 89425, "BSTAR": 0.0048847433, "MEAN_MOTION_DOT": 0.00093441, "MEAN_MOTION_DDOT": 0}, "tle": {"line1": "1 33901U 93036DE  25340.91301348  .00093441  00000+0  48847-2 0  9993", "line2": "2 33901  73.7726  61.6198 0033753 193.9066 166.1202 15.14910209894254"}}, "geometry": {"type": "Point", "coordinates": [67.78835579712928, 22.74921211804319]}}]}